[
  {
    "COMMENT": "GENERATED VIA SPACETRACK.ORG API",
    "ORIGINATOR": "18 SPCS",
    "NORAD_CAT_ID": "39086",
    "OBJECT_NAME": "SARAL",
    "OBJECT_TYPE": "PAYLOAD",
    "CLASSIFICATION_TYPE": "U",
    "INTLDES": "13009A",
    "EPOCH": "2023-06-18 18:37:28",
    "EPOCH_MICROSECONDS": "484832",
    "MEAN_MOTION": "14.32224236",
    "ECCENTRICITY": "0.0000748",
    "INCLINATION": "98.5475",
    "RA_OF_ASC_NODE": "355.0423",
    "ARG_OF_PERICENTER": "297.2644",
    "MEAN_ANOMALY": "62.8463",
    "EPHEMERIS_TYPE": "0",
    "ELEMENT_SET_NO": "999",
    "REV_AT_EPOCH": "53891",
    "BSTAR": "0.000062971",
    "MEAN_MOTION_DOT": "0.00000126",
    "MEAN_MOTION_DDOT": "0",
    "FILE": "3936454",
    "TLE_LINE0": "0 SARAL",
    "TLE_LINE1": "1 39086U 13009A   23169.77602413  .00000126  00000-0  62971-4 0  9998",
    "TLE_LINE2": "2 39086  98.5475 355.0423 0000748 297.2644  62.8463 14.32224236538915",
    "OBJECT_ID": "2013-009A",
    "OBJECT_NUMBER": "39086",
    "SEMIMAJOR_AXIS": "7162.443",
    "PERIOD": "100.543",
    "APOGEE": "784.843",
    "PERIGEE": "783.772",
    "DECAYED": "0"
  },
  {
    "COMMENT": "GENERATED VIA SPACETRACK.ORG API",
    "ORIGINATOR": "18 SPCS",
    "NORAD_CAT_ID": "39086",
    "OBJECT_NAME": "SARAL",
    "OBJECT_TYPE": "PAYLOAD",
    "CLASSIFICATION_TYPE": "U",
    "INTLDES": "13009A",
    "EPOCH": "2023-06-18 20:18:04",
    "EPOCH_MICROSECONDS": "515840",
    "MEAN_MOTION": "14.32224262",
    "ECCENTRICITY": "0.0000746",
    "INCLINATION": "98.5475",
    "RA_OF_ASC_NODE": "355.1111",
    "ARG_OF_PERICENTER": "296.7841",
    "MEAN_ANOMALY": "63.3267",
    "EPHEMERIS_TYPE": "0",
    "ELEMENT_SET_NO": "999",
    "REV_AT_EPOCH": "53892",
    "BSTAR": "0.000062764",
    "MEAN_MOTION_DOT": "0.00000126",
    "MEAN_MOTION_DDOT": "0",
    "FILE": "3936745",
    "TLE_LINE0": "0 SARAL",
    "TLE_LINE1": "1 39086U 13009A   23169.84588560  .00000126  00000-0  62764-4 0  9992",
    "TLE_LINE2": "2 39086  98.5475 355.1111 0000746 296.7841  63.3267 14.32224262538929",
    "OBJECT_ID": "2013-009A",
    "OBJECT_NUMBER": "39086",
    "SEMIMAJOR_AXIS": "7162.443",
    "PERIOD": "100.543",
    "APOGEE": "784.842",
    "PERIGEE": "783.773",
    "DECAYED": "0"
  },
  {
    "COMMENT": "GENERATED VIA SPACETRACK.ORG API",
    "ORIGINATOR": "18 SPCS",
    "NORAD_CAT_ID": "39086",
    "OBJECT_NAME": "SARAL",
    "OBJECT_TYPE": "PAYLOAD",
    "CLASSIFICATION_TYPE": "U",
    "INTLDES": "13009A",
    "EPOCH": "2023-06-19 13:04:04",
    "EPOCH_MICROSECONDS": "813824",
    "MEAN_MOTION": "14.32224574",
    "ECCENTRICITY": "0.0000729",
    "INCLINATION": "98.5475",
    "RA_OF_ASC_NODE": "355.7995",
    "ARG_OF_PERICENTER": "291.0265",
    "MEAN_ANOMALY": "69.084",
    "EPHEMERIS_TYPE": "0",
    "ELEMENT_SET_NO": "999",
    "REV_AT_EPOCH": "53902",
    "BSTAR": "0.00006445",
    "MEAN_MOTION_DOT": "0.0000013",
    "MEAN_MOTION_DDOT": "0",
    "FILE": "3937338",
    "TLE_LINE0": "0 SARAL",
    "TLE_LINE1": "1 39086U 13009A   23170.54450016  .00000130  00000-0  64450-4 0  9994",
    "TLE_LINE2": "2 39086  98.5475 355.7995 0000729 291.0265  69.0840 14.32224574539022",
    "OBJECT_ID": "2013-009A",
    "OBJECT_NUMBER": "39086",
    "SEMIMAJOR_AXIS": "7162.442",
    "PERIOD": "100.543",
    "APOGEE": "784.829",
    "PERIGEE": "783.784",
    "DECAYED": "0"
  },
  {
    "COMMENT": "GENERATED VIA SPACETRACK.ORG API",
    "ORIGINATOR": "18 SPCS",
    "NORAD_CAT_ID": "39086",
    "OBJECT_NAME": "SARAL",
    "OBJECT_TYPE": "PAYLOAD",
    "CLASSIFICATION_TYPE": "U",
    "INTLDES": "13009A",
    "EPOCH": "2023-06-19 21:27:04",
    "EPOCH_MICROSECONDS": "959360",
    "MEAN_MOTION": "14.32224687",
    "ECCENTRICITY": "0.0000719",
    "INCLINATION": "98.5475",
    "RA_OF_ASC_NODE": "356.1437",
    "ARG_OF_PERICENTER": "288.1155",
    "MEAN_ANOMALY": "71.995",
    "EPHEMERIS_TYPE": "0",
    "ELEMENT_SET_NO": "999",
    "REV_AT_EPOCH": "53907",
    "BSTAR": "0.000061758",
    "MEAN_MOTION_DOT": "0.00000123",
    "MEAN_MOTION_DDOT": "0",
    "FILE": "3937509",
    "TLE_LINE0": "0 SARAL",
    "TLE_LINE1": "1 39086U 13009A   23170.89380740  .00000123  00000-0  61758-4 0  9998",
    "TLE_LINE2": "2 39086  98.5475 356.1437 0000719 288.1155  71.9950 14.32224687539076",
    "OBJECT_ID": "2013-009A",
    "OBJECT_NUMBER": "39086",
    "SEMIMAJOR_AXIS": "7162.441",
    "PERIOD": "100.543",
    "APOGEE": "784.821",
    "PERIGEE": "783.791",
    "DECAYED": "0"
  },
  {
    "COMMENT": "GENERATED VIA SPACETRACK.ORG API",
    "ORIGINATOR": "18 SPCS",
    "NORAD_CAT_ID": "39086",
    "OBJECT_NAME": "SARAL",
    "OBJECT_TYPE": "PAYLOAD",
    "CLASSIFICATION_TYPE": "U",
    "INTLDES": "13009A",
    "EPOCH": "2023-06-20 04:09:29",
    "EPOCH_MICROSECONDS": "71296",
    "MEAN_MOTION": "14.32224829",
    "ECCENTRICITY": "0.0000715",
    "INCLINATION": "98.5475",
    "RA_OF_ASC_NODE": "356.4191",
    "ARG_OF_PERICENTER": "285.7094",
    "MEAN_ANOMALY": "74.401",
    "EPHEMERIS_TYPE": "0",
    "ELEMENT_SET_NO": "999",
    "REV_AT_EPOCH": "53911",
    "BSTAR": "0.000065076",
    "MEAN_MOTION_DOT": "0.00000132",
    "MEAN_MOTION_DDOT": "0",
    "FILE": "3937551",
    "TLE_LINE0": "0 SARAL",
    "TLE_LINE1": "1 39086U 13009A   23171.17325314  .00000132  00000-0  65076-4 0  9993",
    "TLE_LINE2": "2 39086  98.5475 356.4191 0000715 285.7094  74.4010 14.32224829539115",
    "OBJECT_ID": "2013-009A",
    "OBJECT_NUMBER": "39086",
    "SEMIMAJOR_AXIS": "7162.441",
    "PERIOD": "100.543",
    "APOGEE": "784.818",
    "PERIGEE": "783.794",
    "DECAYED": "0"
  },
  {
    "COMMENT": "GENERATED VIA SPACETRACK.ORG API",
    "ORIGINATOR": "18 SPCS",
    "NORAD_CAT_ID": "39086",
    "OBJECT_NAME": "SARAL",
    "OBJECT_TYPE": "PAYLOAD",
    "CLASSIFICATION_TYPE": "U",
    "INTLDES": "13009A",
    "EPOCH": "2023-06-20 12:32:29",
    "EPOCH_MICROSECONDS": "211648",
    "MEAN_MOTION": "14.32224977",
    "ECCENTRICITY": "0.0000714",
    "INCLINATION": "98.5475",
    "RA_OF_ASC_NODE": "356.7633",
    "ARG_OF_PERICENTER": "283.0035",
    "MEAN_ANOMALY": "77.1069",
    "EPHEMERIS_TYPE": "0",
    "ELEMENT_SET_NO": "999",
    "REV_AT_EPOCH": "53916",
    "BSTAR": "0.000066865",
    "MEAN_MOTION_DOT": "0.00000137",
    "MEAN_MOTION_DDOT": "0",
    "FILE": "3938135",
    "TLE_LINE0": "0 SARAL",
    "TLE_LINE1": "1 39086U 13009A   23171.52256032  .00000137  00000-0  66865-4 0  9994",
    "TLE_LINE2": "2 39086  98.5475 356.7633 0000714 283.0035  77.1069 14.32224977539167",
    "OBJECT_ID": "2013-009A",
    "OBJECT_NUMBER": "39086",
    "SEMIMAJOR_AXIS": "7162.440",
    "PERIOD": "100.543",
    "APOGEE": "784.817",
    "PERIGEE": "783.794",
    "DECAYED": "0"
  },
  {
    "COMMENT": "GENERATED VIA SPACETRACK.ORG API",
    "ORIGINATOR": "18 SPCS",
    "NORAD_CAT_ID": "39086",
    "OBJECT_NAME": "SARAL",
    "OBJECT_TYPE": "PAYLOAD",
    "CLASSIFICATION_TYPE": "U",
    "INTLDES": "13009A",
    "EPOCH": "2023-06-20 20:55:29",
    "EPOCH_MICROSECONDS": "349408",
    "MEAN_MOTION": "14.32225119",
    "ECCENTRICITY": "0.0000706",
    "INCLINATION": "98.5476",
    "RA_OF_ASC_NODE": "357.1075",
    "ARG_OF_PERICENTER": "280.0918",
    "MEAN_ANOMALY": "80.0186",
    "EPHEMERIS_TYPE": "0",
    "ELEMENT_SET_NO": "999",
    "REV_AT_EPOCH": "53921",
    "BSTAR": "0.000066604",
    "MEAN_MOTION_DOT": "0.00000136",
    "MEAN_MOTION_DDOT": "0",
    "FILE": "3938544",
    "TLE_LINE0": "0 SARAL",
    "TLE_LINE1": "1 39086U 13009A   23171.87186747  .00000136  00000-0  66604-4 0  9997",
    "TLE_LINE2": "2 39086  98.5476 357.1075 0000706 280.0918  80.0186 14.32225119539219",
    "OBJECT_ID": "2013-009A",
    "OBJECT_NUMBER": "39086",
    "SEMIMAJOR_AXIS": "7162.440",
    "PERIOD": "100.543",
    "APOGEE": "784.810",
    "PERIGEE": "783.799",
    "DECAYED": "0"
  },
  {
    "COMMENT": "GENERATED VIA SPACETRACK.ORG API",
    "ORIGINATOR": "18 SPCS",
    "NORAD_CAT_ID": "39086",
    "OBJECT_NAME": "SARAL",
    "OBJECT_TYPE": "PAYLOAD",
    "CLASSIFICATION_TYPE": "U",
    "INTLDES": "13009A",
    "EPOCH": "2023-06-21 12:00:53",
    "EPOCH_MICROSECONDS": "593056",
    "MEAN_MOTION": "14.32225366",
    "ECCENTRICITY": "0.0000703",
    "INCLINATION": "98.5476",
    "RA_OF_ASC_NODE": "357.7271",
    "ARG_OF_PERICENTER": "275.2611",
    "MEAN_ANOMALY": "84.8493",
    "EPHEMERIS_TYPE": "0",
    "ELEMENT_SET_NO": "999",
    "REV_AT_EPOCH": "53930",
    "BSTAR": "0.000067706",
    "MEAN_MOTION_DOT": "0.00000139",
    "MEAN_MOTION_DDOT": "0",
    "FILE": "3938860",
    "TLE_LINE0": "0 SARAL",
    "TLE_LINE1": "1 39086U 13009A   23172.50062029  .00000139  00000-0  67706-4 0  9991",
    "TLE_LINE2": "2 39086  98.5476 357.7271 0000703 275.2611  84.8493 14.32225366539303",
    "OBJECT_ID": "2013-009A",
    "OBJECT_NUMBER": "39086",
    "SEMIMAJOR_AXIS": "7162.439",
    "PERIOD": "100.543",
    "APOGEE": "784.807",
    "PERIGEE": "783.800",
    "DECAYED": "0"
  },
  {
    "COMMENT": "GENERATED VIA SPACETRACK.ORG API",
    "ORIGINATOR": "18 SPCS",
    "NORAD_CAT_ID": "39086",
    "OBJECT_NAME": "SARAL",
    "OBJECT_TYPE": "PAYLOAD",
    "CLASSIFICATION_TYPE": "U",
    "INTLDES": "13009A",
    "EPOCH": "2023-06-21 13:41:29",
    "EPOCH_MICROSECONDS": "620608",
    "MEAN_MOTION": "14.3222538",
    "ECCENTRICITY": "0.0000702",
    "INCLINATION": "98.5476",
    "RA_OF_ASC_NODE": "357.7959",
    "ARG_OF_PERICENTER": "274.691",
    "MEAN_ANOMALY": "85.4194",
    "EPHEMERIS_TYPE": "0",
    "ELEMENT_SET_NO": "999",
    "REV_AT_EPOCH": "53931",
    "BSTAR": "0.000066596",
    "MEAN_MOTION_DOT": "0.00000136",
    "MEAN_MOTION_DDOT": "0",
    "FILE": "3939133",
    "TLE_LINE0": "0 SARAL",
    "TLE_LINE1": "1 39086U 13009A   23172.57048172  .00000136  00000-0  66596-4 0  9994",
    "TLE_LINE2": "2 39086  98.5476 357.7959 0000702 274.6910  85.4194 14.32225380539312",
    "OBJECT_ID": "2013-009A",
    "OBJECT_NUMBER": "39086",
    "SEMIMAJOR_AXIS": "7162.439",
    "PERIOD": "100.543",
    "APOGEE": "784.807",
    "PERIGEE": "783.801",
    "DECAYED": "0"
  }
]